STARLINK-2725           
1 48681U 21044AV  26068.26086667  .00007137  00000+0  25291-3 0  9990
2 48681  53.1605  77.2652 0001238  98.8820 261.2321 15.30195858264292
CUAVA-2                 
1 60527U 24149BM  26068.46955133  .00015400  00000+0  47570-3 0  9993
2 60527  97.3769 149.9859 0005669 291.2139  68.8497 15.33611708 86877
